CCSDS_OMM_VERS = 2.0
CREATION_DATE  = 
ORIGINATOR     = 

OBJECT_NAME    = KUIPER-00183
OBJECT_ID      = 2025-301F
CENTER_NAME    = EARTH
REF_FRAME      = TEME
TIME_SYSTEM    = UTC
MEAN_ELEMENT_THEORY = SGP/SGP4

EPOCH          = 2026-01-13T11:42:50.035968
MEAN_MOTION    = 15.34823823
ECCENTRICITY   = .0011274
INCLINATION    = 51.8645
RA_OF_ASC_NODE = 332.2560
ARG_OF_PERICENTER = 205.4324
MEAN_ANOMALY   = 154.6108

EPHEMERIS_TYPE = 0
CLASSIFICATION_TYPE = U
NORAD_CAT_ID   = 67138
ELEMENT_SET_NO = 999
REV_AT_EPOCH   = 541
BSTAR          = .61467E-3
MEAN_MOTION_DOT = .20785E-3
MEAN_MOTION_DDOT = 0

CCSDS_OMM_VERS = 2.0
CREATION_DATE  = 
ORIGINATOR     = 

OBJECT_NAME    = KUIPER-00184
OBJECT_ID      = 2025-301G
CENTER_NAME    = EARTH
REF_FRAME      = TEME
TIME_SYSTEM    = UTC
MEAN_ELEMENT_THEORY = SGP/SGP4

EPOCH          = 2026-01-13T20:56:15.501696
MEAN_MOTION    = 15.35145644
ECCENTRICITY   = .00093784
INCLINATION    = 51.8664
RA_OF_ASC_NODE = 330.3362
ARG_OF_PERICENTER = 204.2009
MEAN_ANOMALY   = 155.8537

EPHEMERIS_TYPE = 0
CLASSIFICATION_TYPE = U
NORAD_CAT_ID   = 67139
ELEMENT_SET_NO = 999
REV_AT_EPOCH   = 558
BSTAR          = .56406852E-3
MEAN_MOTION_DOT = .19226E-3
MEAN_MOTION_DDOT = 0

CCSDS_OMM_VERS = 2.0
CREATION_DATE  = 
ORIGINATOR     = 

OBJECT_NAME    = KUIPER-00186
OBJECT_ID      = 2025-301H
CENTER_NAME    = EARTH
REF_FRAME      = TEME
TIME_SYSTEM    = UTC
MEAN_ELEMENT_THEORY = SGP/SGP4

EPOCH          = 2026-01-13T03:28:02.477568
MEAN_MOTION    = 15.35937935
ECCENTRICITY   = .00079779
INCLINATION    = 51.8705
RA_OF_ASC_NODE = 333.7218
ARG_OF_PERICENTER = 186.8007
MEAN_ANOMALY   = 173.2872

EPHEMERIS_TYPE = 0
CLASSIFICATION_TYPE = U
NORAD_CAT_ID   = 67140
ELEMENT_SET_NO = 999
REV_AT_EPOCH   = 519
BSTAR          = .59557286E-3
MEAN_MOTION_DOT = .20847E-3
MEAN_MOTION_DDOT = 0

CCSDS_OMM_VERS = 2.0
CREATION_DATE  = 
ORIGINATOR     = 

OBJECT_NAME    = KUIPER-00187
OBJECT_ID      = 2025-301J
CENTER_NAME    = EARTH
REF_FRAME      = TEME
TIME_SYSTEM    = UTC
MEAN_ELEMENT_THEORY = SGP/SGP4

EPOCH          = 2026-01-13T22:00:01.999584
MEAN_MOTION    = 15.31891107
ECCENTRICITY   = .00058535
INCLINATION    = 51.8739
RA_OF_ASC_NODE = 329.9248
ARG_OF_PERICENTER = 180.6469
MEAN_ANOMALY   = 159.7241

EPHEMERIS_TYPE = 0
CLASSIFICATION_TYPE = U
NORAD_CAT_ID   = 67141
ELEMENT_SET_NO = 999
REV_AT_EPOCH   = 510
BSTAR          = -.18017202E-1
MEAN_MOTION_DOT = -.526056E-2
MEAN_MOTION_DDOT = 0

CCSDS_OMM_VERS = 2.0
CREATION_DATE  = 
ORIGINATOR     = 

OBJECT_NAME    = KUIPER-00188
OBJECT_ID      = 2025-301K
CENTER_NAME    = EARTH
REF_FRAME      = TEME
TIME_SYSTEM    = UTC
MEAN_ELEMENT_THEORY = SGP/SGP4

EPOCH          = 2026-01-13T09:45:47.964960
MEAN_MOTION    = 15.35751070
ECCENTRICITY   = .0007509
INCLINATION    = 51.8720
RA_OF_ASC_NODE = 332.4814
ARG_OF_PERICENTER = 192.8279
MEAN_ANOMALY   = 167.2517

EPHEMERIS_TYPE = 0
CLASSIFICATION_TYPE = U
NORAD_CAT_ID   = 67142
ELEMENT_SET_NO = 999
REV_AT_EPOCH   = 523
BSTAR          = .67222E-3
MEAN_MOTION_DOT = .23443E-3
MEAN_MOTION_DDOT = 0

CCSDS_OMM_VERS = 2.0
CREATION_DATE  = 
ORIGINATOR     = 

OBJECT_NAME    = KUIPER-00191
OBJECT_ID      = 2025-301L
CENTER_NAME    = EARTH
REF_FRAME      = TEME
TIME_SYSTEM    = UTC
MEAN_ELEMENT_THEORY = SGP/SGP4

EPOCH          = 2026-01-13T12:48:06.382944
MEAN_MOTION    = 15.35960235
ECCENTRICITY   = .00062765
INCLINATION    = 51.8696
RA_OF_ASC_NODE = 331.8250
ARG_OF_PERICENTER = 187.1462
MEAN_ANOMALY   = 172.9436

EPHEMERIS_TYPE = 0
CLASSIFICATION_TYPE = U
NORAD_CAT_ID   = 67143
ELEMENT_SET_NO = 999
REV_AT_EPOCH   = 528
BSTAR          = .5599026E-3
MEAN_MOTION_DOT = .19579E-3
MEAN_MOTION_DDOT = 0

CCSDS_OMM_VERS = 2.0
CREATION_DATE  = 
ORIGINATOR     = 

OBJECT_NAME    = KUIPER-00196
OBJECT_ID      = 2025-301M
CENTER_NAME    = EARTH
REF_FRAME      = TEME
TIME_SYSTEM    = UTC
MEAN_ELEMENT_THEORY = SGP/SGP4

EPOCH          = 2026-01-13T06:11:58.608672
MEAN_MOTION    = 15.36637042
ECCENTRICITY   = .0003731
INCLINATION    = 51.8738
RA_OF_ASC_NODE = 332.9939
ARG_OF_PERICENTER = 146.5702
MEAN_ANOMALY   = 213.5520

EPHEMERIS_TYPE = 0
CLASSIFICATION_TYPE = U
NORAD_CAT_ID   = 67144
ELEMENT_SET_NO = 999
REV_AT_EPOCH   = 521
BSTAR          = .66018E-3
MEAN_MOTION_DOT = .23675E-3
MEAN_MOTION_DDOT = 0

CCSDS_OMM_VERS = 2.0
CREATION_DATE  = 
ORIGINATOR     = 

OBJECT_NAME    = KUIPER-00204
OBJECT_ID      = 2025-301N
CENTER_NAME    = EARTH
REF_FRAME      = TEME
TIME_SYSTEM    = UTC
MEAN_ELEMENT_THEORY = SGP/SGP4

EPOCH          = 2026-01-13T22:00:01.999584
MEAN_MOTION    = 15.23503985
ECCENTRICITY   = .00018343
INCLINATION    = 51.8824
RA_OF_ASC_NODE = 330.1996
ARG_OF_PERICENTER = 144.7420
MEAN_ANOMALY   = 40.5913

EPHEMERIS_TYPE = 0
CLASSIFICATION_TYPE = U
NORAD_CAT_ID   = 67145
ELEMENT_SET_NO = 999
REV_AT_EPOCH   = 542
BSTAR          = -.18483776E-3
MEAN_MOTION_DOT = -.4805E-4
MEAN_MOTION_DDOT = 0

CCSDS_OMM_VERS = 2.0
CREATION_DATE  = 
ORIGINATOR     = 

OBJECT_NAME    = KUIPER-00210
OBJECT_ID      = 2025-301P
CENTER_NAME    = EARTH
REF_FRAME      = TEME
TIME_SYSTEM    = UTC
MEAN_ELEMENT_THEORY = SGP/SGP4

EPOCH          = 2026-01-13T11:40:38.654400
MEAN_MOTION    = 15.34859273
ECCENTRICITY   = .0010677
INCLINATION    = 51.8613
RA_OF_ASC_NODE = 332.2431
ARG_OF_PERICENTER = 211.1873
MEAN_ANOMALY   = 148.8480

EPHEMERIS_TYPE = 0
CLASSIFICATION_TYPE = U
NORAD_CAT_ID   = 67146
ELEMENT_SET_NO = 999
REV_AT_EPOCH   = 541
BSTAR          = .44683E-3
MEAN_MOTION_DOT = .15006E-3
MEAN_MOTION_DDOT = 0

CCSDS_OMM_VERS = 2.0
CREATION_DATE  = 
ORIGINATOR     = 

OBJECT_NAME    = KUIPER-00221
OBJECT_ID      = 2025-301Q
CENTER_NAME    = EARTH
REF_FRAME      = TEME
TIME_SYSTEM    = UTC
MEAN_ELEMENT_THEORY = SGP/SGP4

EPOCH          = 2026-01-13T22:00:01.999584
MEAN_MOTION    = 15.33014804
ECCENTRICITY   = .00050157
INCLINATION    = 51.8736
RA_OF_ASC_NODE = 329.9139
ARG_OF_PERICENTER = 165.2265
MEAN_ANOMALY   = 192.4801

EPHEMERIS_TYPE = 0
CLASSIFICATION_TYPE = U
NORAD_CAT_ID   = 67147
ELEMENT_SET_NO = 999
REV_AT_EPOCH   = 479
BSTAR          = -.73800363E-4
MEAN_MOTION_DOT = -.2763E-4
MEAN_MOTION_DDOT = 0

CCSDS_OMM_VERS = 2.0
CREATION_DATE  = 
ORIGINATOR     = 

OBJECT_NAME    = KUIPER-00232
OBJECT_ID      = 2025-301R
CENTER_NAME    = EARTH
REF_FRAME      = TEME
TIME_SYSTEM    = UTC
MEAN_ELEMENT_THEORY = SGP/SGP4

EPOCH          = 2026-01-13T13:42:39.869856
MEAN_MOTION    = 15.37187059
ECCENTRICITY   = .00026823
INCLINATION    = 51.8736
RA_OF_ASC_NODE = 331.3428
ARG_OF_PERICENTER = 92.9252
MEAN_ANOMALY   = 267.2041

EPHEMERIS_TYPE = 0
CLASSIFICATION_TYPE = U
NORAD_CAT_ID   = 67148
ELEMENT_SET_NO = 999
REV_AT_EPOCH   = 526
BSTAR          = .28769658E-3
MEAN_MOTION_DOT = .10264E-3
MEAN_MOTION_DDOT = 0

CCSDS_OMM_VERS = 2.0
CREATION_DATE  = 
ORIGINATOR     = 

OBJECT_NAME    = KUIPER-00241
OBJECT_ID      = 2025-301S
CENTER_NAME    = EARTH
REF_FRAME      = TEME
TIME_SYSTEM    = UTC
MEAN_ELEMENT_THEORY = SGP/SGP4

EPOCH          = 2026-01-13T21:42:23.253120
MEAN_MOTION    = 15.36878952
ECCENTRICITY   = .00031564
INCLINATION    = 51.8753
RA_OF_ASC_NODE = 329.8230
ARG_OF_PERICENTER = 134.1326
MEAN_ANOMALY   = 225.9921

EPHEMERIS_TYPE = 0
CLASSIFICATION_TYPE = U
NORAD_CAT_ID   = 67149
ELEMENT_SET_NO = 999
REV_AT_EPOCH   = 564
BSTAR          = .69055236E-3
MEAN_MOTION_DOT = .24982E-3
MEAN_MOTION_DDOT = 0

